NORAD_CAT_ID,OBJECT_NAME,OBJECT_TYPE,EPOCH,MEAN_MOTION,ECCENTRICITY,INCLINATION,RA_OF_ASC_NODE,ARG_OF_PERICENTER,MEAN_ANOMALY,BSTAR,MEAN_MOTION_DOT,MEAN_MOTION_DDOT,TLE_LINE0,TLE_LINE1,TLE_LINE2,SEMIMAJOR_AXIS,PERIOD,APOGEE,PERIGEE,DECAYED
51719.0,STARLINK-3540,PAYLOAD,2023-01-19 10:35:30,15.08873034,0.0001367,53.2152,70.3521,91.9222,268.1927,0.0019659,0.00031166,0.0,0 STARLINK-3540,1 51719U 22016F   23019.44132239  .00031166  00000-0  19659-2 0  9996,2 51719  53.2152  70.3521 0001367  91.9222 268.1927 15.08873034 50530,6917.779,95.435,540.59,538.6990000000001,0.0
51719.0,STARLINK-3540,PAYLOAD,2023-01-20 02:29:22,15.08853115,0.0002784,53.2149,67.3785,93.8643,266.2667,0.0015359,0.0002424999999999,0.0,0 STARLINK-3540,1 51719U 22016F   23020.10372822  .00024250  00000-0  15359-2 0  9994,2 51719  53.2149  67.3785 0002784  93.8643 266.2667 15.08853115 51692,6917.84,95.437,541.631,537.779,0.0
51719.0,STARLINK-3540,PAYLOAD,2023-01-20 10:26:17,15.08839673,0.000131,53.2145,65.8914,106.1423,253.9714,0.0021355,0.00033862,0.0,0 STARLINK-3540,1 51719U 22016F   23020.43492928  .00033862  00000-0  21355-2 0  9992,2 51719  53.2145  65.8914 0001310 106.1423 253.9714 15.08839673 51748,6917.880999999999,95.438,540.653,538.84,0.0
51719.0,STARLINK-3540,PAYLOAD,2023-01-20 19:58:36,15.08844227,0.0001489,53.2146,64.1081,86.3721,273.7441,0.0012099,0.00019022,0.0,0 STARLINK-3540,1 51719U 22016F   23020.83237199  .00019022  00000-0  12099-2 0  9990,2 51719  53.2146  64.1081 0001489  86.3721 273.7441 15.08844227 51808,6917.866999999999,95.437,540.763,538.702,0.0
51719.0,STARLINK-3540,PAYLOAD,2023-01-21 10:17:05,15.08846385,0.0001376999999999,53.2142,61.4317,93.171,266.9439,0.0006749,0.00010471,0.0,0 STARLINK-3540,1 51719U 22016F   23021.42853190  .00010471  00000-0  67490-3 0  9996,2 51719  53.2142  61.4317 0001377  93.1710 266.9439 15.08846385 51893,6917.861,95.437,540.678,538.773,0.0
51719.0,STARLINK-3540,PAYLOAD,2023-01-22 08:32:28,15.08847965,0.0001445,53.2146,57.2663,95.1947,264.921,0.00034359,5.186e-05,0.0,0 STARLINK-3540,1 51719U 22016F   23022.35588992  .00005186  00000-0  34359-3 0  9999,2 51719  53.2146  57.2663 0001445  95.1947 264.9210 15.08847965 52031,6917.856,95.437,540.721,538.721,0.0
51719.0,STARLINK-3540,PAYLOAD,2023-01-23 02:01:43,15.08833611,0.0001439,53.2155,53.9982,82.0309,278.0846,-5.2869e-05,-1.129e-05,0.0,0 STARLINK-3540,1 51719U 22016F   23023.08453547 -.00001129  00000-0 -52869-4 0  9999,2 51719  53.2155  53.9982 0001439  82.0309 278.0846 15.08833611 52144,6917.9,95.438,540.76,538.769,0.0
51719.0,STARLINK-3540,PAYLOAD,2023-01-23 08:23:16,15.08839077,0.0001440999999999,53.2142,52.8078,88.4457,271.67,7.883e-05,9.67e-06,0.0,0 STARLINK-3540,1 51719U 22016F   23023.34949357  .00000967  00000-0  78830-4 0  9990,2 51719  53.2142  52.8078 0001441  88.4457 271.6700 15.08839077 52185,6917.883000000001,95.438,540.745,538.751,0.0
51719.0,STARLINK-3540,PAYLOAD,2023-01-24 11:24:49,15.08845031,0.000145,53.2146,47.7491,98.4412,261.6744,0.00037526,5.69e-05,0.0,0 STARLINK-3540,1 51719U 22016F   23024.47557626  .00005690  00000-0  37526-3 0  9993,2 51719  53.2146  47.7491 0001450  98.4412 261.6744 15.08845031 52356,6917.865,95.437,540.7330000000001,538.727,0.0
51719.0,STARLINK-3540,PAYLOAD,2023-01-25 04:54:04,15.08838496,0.000152,53.2148,44.4769,107.294,252.8218,0.00023653,3.478e-05,0.0,0 STARLINK-3540,1 51719U 22016F   23025.20422065  .00003478  00000-0  23653-3 0  9991,2 51719  53.2148  44.4769 0001520 107.2940 252.8218 15.08838496 52460,6917.885,95.438,540.802,538.698,0.0
51719.0,STARLINK-3540,PAYLOAD,2023-01-25 11:15:36,15.08850641,0.0001311,53.2152,43.2893,95.1886,264.9256,0.00044803,6.852e-05,0.0,0 STARLINK-3540,1 51719U 22016F   23025.46917722  .00006852  00000-0  44803-3 0  9997,2 51719  53.2152  43.2893 0001311  95.1886 264.9256 15.08850641 51441,6917.848000000001,95.437,540.62,538.806,0.0
51719.0,STARLINK-3540,PAYLOAD,2023-01-25 17:37:09,15.08843221,0.0001042999999999,53.2139,42.0983,87.7995,272.3116,0.00021811,3.185e-05,0.0,0 STARLINK-3540,1 51719U 22016F   23025.73413915  .00003185  00000-0  21811-3 0  9992,2 51719  53.2139  42.0983 0001043  87.7995 272.3116 15.08843221 51481,6917.871,95.437,540.457,539.014,0.0
51719.0,STARLINK-3540,PAYLOAD,2023-01-26 11:06:23,15.08847428,0.0001436,53.2162,38.8268,92.7516,267.3641,0.00027394,4.075e-05,0.0,0 STARLINK-3540,1 51719U 22016F   23026.46277763  .00004075  00000-0  27394-3 0  9993,2 51719  53.2162  38.8268 0001436  92.7516 267.3641 15.08847428 51599,6917.858,95.437,540.716,538.729,0.0
51719.0,STARLINK-3540,PAYLOAD,2023-01-27 01:24:52,15.08840262,0.0001419,53.2153,36.1488,102.877,257.2381,4.806e-05,4.77e-06,0.0,0 STARLINK-3540,1 51719U 22016F   23027.05894003  .00000477  00000-0  48060-4 0  9997,2 51719  53.2153  36.1488 0001419 102.8770 257.2381 15.08840262 52746,6917.88,95.438,540.726,538.763,0.0
51719.0,STARLINK-3540,PAYLOAD,2023-01-27 10:57:11,15.08838585,0.0001304,53.2156,34.3646,102.2543,257.8595,3.7902e-05,3.15e-06,0.0,0 STARLINK-3540,1 51719U 22016F   23027.45638078  .00000315  00000-0  37902-4 0  9993,2 51719  53.2156  34.3646 0001304 102.2543 257.8595 15.08838585 51747,6917.885,95.438,540.6519999999999,538.8480000000001,0.0
51719.0,STARLINK-3540,PAYLOAD,2023-01-28 04:26:26,15.08836898,0.0001016,53.2148,31.0951,97.2701,262.8407,0.00011995,1.622e-05,0.0,0 STARLINK-3540,1 51719U 22016F   23028.18502425  .00001622  00000-0  11995-3 0  9995,2 51719  53.2148  31.0951 0001016  97.2701 262.8407 15.08836898 52913,6917.89,95.438,540.4580000000001,539.052,0.0
51719.0,STARLINK-3540,PAYLOAD,2023-01-28 09:12:35,15.08843938,0.0001132,53.2151,30.2035,98.1402,261.9719,9.0705e-05,1.156e-05,0.0,0 STARLINK-3540,1 51719U 22016F   23028.38374078  .00001156  00000-0  90705-4 0  9997,2 51719  53.2151  30.2035 0001132  98.1402 261.9719 15.08843938 51882,6917.868,95.437,540.516,538.95,0.0
51719.0,STARLINK-3540,PAYLOAD,2023-01-29 05:52:36,15.08834563,9.77e-05,53.2154,26.3383,74.4438,285.6662,0.00036681,5.554e-05,0.0,0 STARLINK-3540,1 51719U 22016F   23029.24486950  .00005554  00000-0  36681-3 0  9994,2 51719  53.2154  26.3383 0000977  74.4438 285.6662 15.08834563 53076,6917.897,95.438,540.438,539.086,0.0
51719.0,STARLINK-3540,PAYLOAD,2023-01-29 09:03:22,15.0883974,0.0001046,53.2155,25.7438,69.3405,290.7699,0.00039868,6.063e-05,0.0,0 STARLINK-3540,1 51719U 22016F   23029.37734687  .00006063  00000-0  39868-3 0  9997,2 51719  53.2155  25.7438 0001046  69.3405 290.7699 15.08839740 52030,6917.881,95.438,540.47,539.023,0.0
51719.0,STARLINK-3540,PAYLOAD,2023-01-30 05:43:22,15.08855324,0.0001106,53.2152,21.878,85.2183,274.8936,8.6487e-05,1.089e-05,0.0,0 STARLINK-3540,1 51719U 22016F   23030.23845744  .00001089  00000-0  86487-4 0  9994,2 51719  53.2152  21.8780 0001106  85.2183 274.8936 15.08855324 53226,6917.834,95.437,540.464,538.933,0.0
51719.0,STARLINK-3540,PAYLOAD,2023-01-30 08:54:09,15.08850975,0.000113,53.2155,21.2829,92.561,267.5512,0.00025315,3.745e-05,0.0,0 STARLINK-3540,1 51719U 22016F   23030.37093997  .00003745  00000-0  25315-3 0  9997,2 51719  53.2155  21.2829 0001130  92.5610 267.5512 15.08850975 52180,6917.847,95.437,540.494,538.93,0.0
51719.0,STARLINK-3540,PAYLOAD,2023-01-30 23:12:37,15.08852049,0.0001103,53.2151,18.6064,88.701,271.4108,0.0001981,2.867e-05,0.0,0 STARLINK-3540,1 51719U 22016F   23030.96709672  .00002867  00000-0  19810-3 0  9993,2 51719  53.2151  18.6064 0001103  88.7010 271.4108 15.08852049 53335,6917.844,95.437,540.472,538.946,0.0
51719.0,STARLINK-3540,PAYLOAD,2023-01-31 08:44:55,15.08867195,0.0001149,53.2158,16.8227,94.5534,265.5589,0.00044321,6.778e-05,0.0,0 STARLINK-3540,1 51719U 22016F   23031.36452758  .00006778  00000-0  44321-3 0  9998,2 51719  53.2158  16.8227 0001149  94.5534 265.5589 15.08867195 53390,6917.797,95.436,540.457,538.867,0.0
51719.0,STARLINK-3540,PAYLOAD,2023-01-31 18:17:14,15.0884999,0.0001631,53.2138,15.0384,91.9496,268.1683,7.4396e-05,8.96e-06,0.0,0 STARLINK-3540,1 51719U 22016F   23031.76197287  .00000896  00000-0  74396-4 0  9996,2 51719  53.2138  15.0384 0001631  91.9496 268.1683 15.08849990 53451,6917.85,95.437,540.843,538.587,0.0
51719.0,STARLINK-3540,PAYLOAD,2023-01-31 19:52:37,15.0884475,0.0001259,53.2149,14.7404,100.2205,259.8929,-2.3145e-05,-6.56e-06,0.0,0 STARLINK-3540,1 51719U 22016F   23031.82821347 -.00000656  00000-0 -23145-4 0  9996,2 51719  53.2149  14.7404 0001259 100.2205 259.8929 15.08844750 52403,6917.866,95.437,540.602,538.86,0.0
51719.0,STARLINK-3540,PAYLOAD,2023-02-01 05:24:56,15.08839229,0.0001125,53.2151,12.957,81.0829,279.029,-7.7919e-05,-1.528e-05,0.0,0 STARLINK-3540,1 51719U 22016F   23032.22565640 -.00001528  00000-0 -77919-4 0  9999,2 51719  53.2151  12.9570 0001125  81.0829 279.0290 15.08839229 53524,6917.883,95.438,540.526,538.969,0.0
51719.0,STARLINK-3540,PAYLOAD,2023-02-01 10:11:05,15.08844908,0.0001145,53.2156,12.0654,80.5838,279.5284,4.6032e-05,4.45e-06,0.0,0 STARLINK-3540,1 51719U 22016F   23032.42437414  .00000445  00000-0  46032-4 0  9995,2 51719  53.2156  12.0654 0001145  80.5838 279.5284 15.08844908 52492,6917.865,95.437,540.522,538.938,0.0
51719.0,STARLINK-3540,PAYLOAD,2023-02-02 08:26:30,15.08844226,0.00012,53.2159,7.9022,93.1357,266.9773,0.00076655,0.00011934,0.0,0 STARLINK-3540,1 51719U 22016F   23033.35174294  .00011934  00000-0  76655-3 0  9990,2 51719  53.2159   7.9022 0001200  93.1357 266.9773 15.08844226 52637,6917.867,95.437,540.563,538.902,0.0
51719.0,STARLINK-3540,PAYLOAD,2023-02-02 22:44:59,15.08841064,0.0001202,53.2158,5.2258,89.4148,270.6982,0.00042327,6.455e-05,0.0,0 STARLINK-3540,1 51719U 22016F   23033.94790575  .00006455  00000-0  42327-3 0  9992,2 51719  53.2158   5.2258 0001202  89.4148 270.6982 15.08841064 53784,6917.877,95.437,540.574,538.911,0.0
51719.0,STARLINK-3540,PAYLOAD,2023-02-03 08:17:17,15.08856579,0.0001179,53.2159,3.442,93.2169,266.8958,0.00073993,0.00011513,0.0,0 STARLINK-3540,1 51719U 22016F   23034.34534120  .00011513  00000-0  73993-3 0  9993,2 51719  53.2159   3.4420 0001179  93.2169 266.8958 15.08856579 53849,6917.83,95.437,540.51,538.879,0.0
